NORAD_CAT_ID,OBJECT_NAME,OBJECT_TYPE,EPOCH,MEAN_MOTION,ECCENTRICITY,INCLINATION,RA_OF_ASC_NODE,ARG_OF_PERICENTER,MEAN_ANOMALY,BSTAR,MEAN_MOTION_DOT,MEAN_MOTION_DDOT,TLE_LINE0,TLE_LINE1,TLE_LINE2,SEMIMAJOR_AXIS,PERIOD,APOGEE,PERIGEE,DECAYED
53132.0,STARLINK-4063,PAYLOAD,2023-08-26 08:47:15,15.08834774,0.0001087,53.2175,12.5505,72.6267,287.4844,0.00017478,2.495e-05,0.0,0 STARLINK-4063,1 53132U 22083A   23238.36615003  .00002495  00000-0  17478-3 0  9991,2 53132  53.2175  12.5505 0001087  72.6267 287.4844 15.08834774 62005,6917.896,95.438,540.513,539.009,0.0
53132.0,STARLINK-4063,PAYLOAD,2023-08-26 11:58:01,15.08837171,0.0001023,53.2174,11.9566,77.775,282.3356,0.00021495,3.135e-05,0.0,0 STARLINK-4063,1 53132U 22083A   23238.49862888  .00003135  00000-0  21495-3 0  9996,2 53132  53.2174  11.9566 0001023  77.7750 282.3356 15.08837171 61394,6917.889,95.438,540.462,539.046,0.0
53132.0,STARLINK-4063,PAYLOAD,2023-08-26 18:19:34,15.08837729,0.0001063,53.2176,10.7677,62.7966,297.3135,0.00061354,9.489e-05,0.0,0 STARLINK-4063,1 53132U 22083A   23238.76359186  .00009489  00000-0  61354-3 0  9994,2 53132  53.2176  10.7677 0001063  62.7966 297.3135 15.08837729 61438,6917.887,95.438,540.488,539.017,0.0
53132.0,STARLINK-4063,PAYLOAD,2023-08-27 08:38:02,15.08844492,0.0001151,53.219,8.0927,98.1766,261.9357,0.00015375,2.16e-05,0.0,0 STARLINK-4063,1 53132U 22083A   23239.35974558  .00002160  00000-0  15375-3 0  9997,2 53132  53.2190   8.0927 0001151  98.1766 261.9357 15.08844492 61529,6917.867,95.437,540.528,538.935,0.0
53132.0,STARLINK-4063,PAYLOAD,2023-08-27 14:59:34,15.08847669,0.0001154,53.2178,6.9028,77.0295,283.0826,0.00016947,2.411e-05,0.0,0 STARLINK-4063,1 53132U 22083A   23239.62470460  .00002411  00000-0  16947-3 0  9995,2 53132  53.2178   6.9028 0001154  77.0295 283.0826 15.08847669 62199,6917.857,95.437,540.52,538.924,0.0
53132.0,STARLINK-4063,PAYLOAD,2023-08-28 18:01:07,15.08844981,0.0001211,53.2183,1.8454,93.4183,266.6947,4.613e-05,4.46e-06,0.0,0 STARLINK-4063,1 53132U 22083A   23240.75078372  .00000446  00000-0  46130-4 0  9991,2 53132  53.2183   1.8454 0001211  93.4183 266.6947 15.08844981 62368,6917.865,95.437,540.568,538.892,0.0
53132.0,STARLINK-4063,PAYLOAD,2023-08-29 08:19:36,15.08838496,0.0001143,53.2178,359.17,84.1719,275.9403,-3.9624e-05,-9.18e-06,0.0,0 STARLINK-4063,1 53132U 22083A   23241.34694767 -.00000918  00000-0 -39624-4 0  9995,2 53132  53.2178 359.1700 0001143  84.1719 275.9403 15.08838496 62455,6917.885,95.438,540.541,538.959,0.0
53132.0,STARLINK-4063,PAYLOAD,2023-08-29 19:27:17,15.08851426,0.0001102,53.2192,357.088,91.0466,269.0652,6.5442e-05,7.54e-06,0.0,0 STARLINK-4063,1 53132U 22083A   23241.81061824  .00000754  00000-0  65442-4 0  9992,2 53132  53.2192 357.0880 0001102  91.0466 269.0652 15.08851426 61893,6917.845,95.437,540.473,538.948,0.0
53132.0,STARLINK-4063,PAYLOAD,2023-08-30 06:35:00,15.08830437,0.0001287,53.219,355.0081,79.3889,280.7248,5.7899e-05,6.33e-06,0.0,0 STARLINK-4063,1 53132U 22083A   23242.27431438  .00000633  00000-0  57899-4 0  9998,2 53132  53.2190 355.0081 0001287  79.3889 280.7248 15.08830437 62592,6917.91,95.438,540.665,538.884,0.0
53132.0,STARLINK-4063,PAYLOAD,2023-08-30 14:31:55,15.08842764,0.0001093,53.2182,353.5207,95.5585,264.5532,0.00015595,2.195e-05,0.0,0 STARLINK-4063,1 53132U 22083A   23242.60550637  .00002195  00000-0  15595-3 0  9999,2 53132  53.2182 353.5207 0001093  95.5585 264.5532 15.08842764 62642,6917.872,95.437,540.493,538.981,0.0
53132.0,STARLINK-4063,PAYLOAD,2023-08-30 19:18:05,15.08844142,9.66e-05,53.2178,352.6294,86.0227,274.0876,9.3844e-05,1.206e-05,0.0,0 STARLINK-4063,1 53132U 22083A   23242.80422493  .00001206  00000-0  93844-4 0  9995,2 53132  53.2178 352.6294 0000966  86.0227 274.0876 15.08844142 62042,6917.868,95.437,540.401,539.064,0.0
53132.0,STARLINK-4063,PAYLOAD,2023-08-31 08:01:11,15.0883778,0.0001267,53.2186,350.2509,97.9273,262.1863,-0.00032525,-5.46e-05,0.0,0 STARLINK-4063,1 53132U 22083A   23243.33416258 -.00005460  00000-0 -32525-3 0  9992,2 53132  53.2186 350.2509 0001267  97.9273 262.1863 15.08837780 62753,6917.887,95.438,540.629,538.876,0.0
53132.0,STARLINK-4063,PAYLOAD,2023-08-31 17:33:29,15.08844639,0.0001219,53.2185,348.4666,96.3376,263.7755,2.487e-05,1.08e-06,0.0,0 STARLINK-4063,1 53132U 22083A   23243.73158925  .00000108  00000-0  24870-4 0  9997,2 53132  53.2185 348.4666 0001219  96.3376 263.7755 15.08844639 62814,6917.866,95.437,540.574,538.888,0.0
53132.0,STARLINK-4063,PAYLOAD,2023-08-31 23:55:01,15.0885474,0.0001034,53.2185,347.2768,122.403,237.7063,-1.376e-05,-5.07e-06,0.0,0 STARLINK-4063,1 53132U 22083A   23243.99654167 -.00000507  00000-0 -13760-4 0  9995,2 53132  53.2185 347.2768 0001034 122.4030 237.7063 15.08854740 62858,6917.835,95.437,540.416,538.985,0.0
53132.0,STARLINK-4063,PAYLOAD,2023-09-01 18:59:41,15.08822457,0.0001653,53.2182,343.7089,88.4821,271.6361,-0.00012137,-2.218e-05,0.0,0 STARLINK-4063,1 53132U 22083A   23244.79144832 -.00002218  00000-0 -12137-3 0  9994,2 53132  53.2182 343.7089 0001653  88.4821 271.6361 15.08822457 62979,6917.934,95.439,540.943,538.655,0.0
53132.0,STARLINK-4063,PAYLOAD,2023-09-01 23:45:48,15.08843645,0.0001417,53.218,342.8161,92.4571,267.6583,0.00050775,7.803e-05,0.0,0 STARLINK-4063,1 53132U 22083A   23244.99014473  .00007803  00000-0  50775-3 0  9996,2 53132  53.2180 342.8161 0001417  92.4571 267.6583 15.08843645 63001,6917.869,95.437,540.715,538.754,0.0
53132.0,STARLINK-4063,PAYLOAD,2023-09-02 06:07:22,15.08836268,0.0001543,53.2186,341.6255,80.0735,280.0431,0.00010646,1.407e-05,0.0,0 STARLINK-4063,1 53132U 22083A   23245.25511626  .00001407  00000-0  10646-3 0  9995,2 53132  53.2186 341.6255 0001543  80.0735 280.0431 15.08836268 63041,6917.892,95.438,540.824,538.689,0.0
53132.0,STARLINK-4063,PAYLOAD,2023-09-02 23:36:35,15.0886483,0.0001366,53.2175,338.3561,75.815,284.2994,-0.00021287,-3.677e-05,0.0,0 STARLINK-4063,1 53132U 22083A   23245.98374397 -.00003677  00000-0 -21287-3 0  9993,2 53132  53.2175 338.3561 0001366  75.8150 284.2994 15.08864830 63156,6917.804,95.436,540.614,538.725,0.0
53132.0,STARLINK-4063,PAYLOAD,2023-09-03 12:19:39,15.08864824,0.0001347,53.2171,335.9774,75.4266,284.6875,-7.8288e-05,-1.535e-05,0.0,0 STARLINK-4063,1 53132U 22083A   23246.51365725 -.00001535  00000-0 -78288-4 0  9993,2 53132  53.2171 335.9774 0001347  75.4266 284.6875 15.08864824 62608,6917.805,95.436,540.601,538.738,0.0
53132.0,STARLINK-4063,PAYLOAD,2023-09-04 05:48:55,15.08836241,0.0001412,53.2168,332.7065,77.4089,282.7061,2.4594e-05,1.03e-06,0.0,0 STARLINK-4063,1 53132U 22083A   23247.24231078  .00000103  00000-0  24594-4 0  9996,2 53132  53.2168 332.7065 0001412  77.4089 282.7061 15.08836241 63340,6917.892,95.438,540.734,538.78,0.0
53132.0,STARLINK-4063,PAYLOAD,2023-09-04 12:10:28,15.08832021,0.0001468,53.2173,331.5171,79.4701,280.6457,-5.1167e-05,-1.102e-05,0.0,0 STARLINK-4063,1 53132U 22083A   23247.50727367 -.00001102  00000-0 -51167-4 0  9994,2 53132  53.2173 331.5171 0001468  79.4701 280.6457 15.08832021 62757,6917.905,95.438,540.785,538.754,0.0
53132.0,STARLINK-4063,PAYLOAD,2023-09-04 23:18:10,15.08831438,0.0001176,53.2166,329.434,91.6174,268.4953,-5.1276e-06,-3.69e-06,0.0,0 STARLINK-4063,1 53132U 22083A   23247.97095627 -.00000369  00000-0 -51276-5 0  9998,2 53132  53.2166 329.4340 0001176  91.6174 268.4953 15.08831438 63453,6917.907,95.438,540.585,538.958,0.0
53132.0,STARLINK-4063,PAYLOAD,2023-09-05 05:39:43,15.08832638,0.0001162,53.2165,328.2444,90.1058,270.0067,5.4684e-05,5.82e-06,0.0,0 STARLINK-4063,1 53132U 22083A   23248.23591779  .00000582  00000-0  54684-4 0  9997,2 53132  53.2165 328.2444 0001162  90.1058 270.0067 15.08832638 62866,6917.903,95.438,540.572,538.964,0.0
53132.0,STARLINK-4063,PAYLOAD,2023-09-06 05:30:30,15.08844775,0.0001175,53.2165,323.7838,92.9704,267.1422,0.00043135,6.585e-05,0.0,0 STARLINK-4063,1 53132U 22083A   23249.22951837  .00006585  00000-0  43135-3 0  9999,2 53132  53.2165 323.7838 0001175  92.9704 267.1422 15.08844775 63649,6917.866,95.437,540.544,538.918,0.0
53132.0,STARLINK-4063,PAYLOAD,2023-09-06 21:24:21,15.0885127,0.0001105,53.2156,320.8108,84.64,275.4718,0.00035352,5.345e-05,0.0,0 STARLINK-4063,1 53132U 22083A   23249.89191438  .00005345  00000-0  35352-3 0  9990,2 53132  53.2156 320.8108 0001105  84.6400 275.4718 15.08851270 63111,6917.846,95.437,540.475,538.947,0.0
53132.0,STARLINK-4063,PAYLOAD,2023-09-07 08:32:03,15.08838143,0.0001366,53.2163,318.7293,96.3421,263.7727,-1.2899e-05,-4.93e-06,0.0,0 STARLINK-4063,1 53132U 22083A   23250.35559802 -.00000493  00000-0 -12899-4 0  9999,2 53132  53.2163 318.7293 0001366  96.3421 263.7727 15.08838143 63813,6917.886,95.438,540.696,538.806,0.0
53132.0,STARLINK-4063,PAYLOAD,2023-09-07 14:53:36,15.08840467,0.0001347,53.2163,317.5396,95.7407,264.3739,5.1861e-05,5.38e-06,0.0,0 STARLINK-4063,1 53132U 22083A   23250.62055807  .00000538  00000-0  51861-4 0  9995,2 53132  53.2163 317.5396 0001347  95.7407 264.3739 15.08840467 63227,6917.879,95.438,540.676,538.812,0.0
53132.0,STARLINK-4063,PAYLOAD,2023-09-08 09:58:14,15.08835918,0.0002232,53.218,313.972,108.0791,252.0445,0.00036487,5.523e-05,0.0,0 STARLINK-4063,1 53132U 22083A   23251.41544219  .00005523  00000-0  36487-3 0  9998,2 53132  53.2180 313.9720 0002232 108.0791 252.0445 15.08835918 63970,6917.893,95.438,541.302,538.214,0.0
53132.0,STARLINK-4063,PAYLOAD,2023-09-08 14:44:22,15.08849477,0.0001452,53.2165,313.0788,93.5304,266.5854,0.00023001,3.375e-05,0.0,0 STARLINK-4063,1 53132U 22083A   23251.61415370  .00003375  00000-0  23001-3 0  9996,2 53132  53.2165 313.0788 0001452  93.5304 266.5854 15.08849477 64003,6917.851,95.437,540.721,538.712,0.0
53132.0,STARLINK-4063,PAYLOAD,2023-09-08 21:05:55,15.08836079,0.0001283,53.2167,311.8896,93.196,266.9179,8.9409e-05,1.135e-05,0.0,0 STARLINK-4063,1 53132U 22083A   23251.87911955  .00001135  00000-0  89409-4 0  9991,2 53132  53.2167 311.8896 0001283  93.1960 266.9179 15.08836079 64049,6917.892,95.438,540.645,538.87,0.0
